CCSDS_OMM_VERS = 2.0
CREATION_DATE  = 
ORIGINATOR     = 

OBJECT_NAME    = SL-3 R/B
OBJECT_ID      = 1982-079B
CENTER_NAME    = EARTH
REF_FRAME      = TEME
TIME_SYSTEM    = UTC
MEAN_ELEMENT_THEORY = SGP/SGP4

EPOCH          = 2026-03-01T22:09:07.426368
MEAN_MOTION    = 15.24657409
ECCENTRICITY   = .00247728
INCLINATION    = 81.1467
RA_OF_ASC_NODE = 202.2456
ARG_OF_PERICENTER = 190.9439
MEAN_ANOMALY   = 169.1259

EPHEMERIS_TYPE = 0
CLASSIFICATION_TYPE = U
NORAD_CAT_ID   = 13403
ELEMENT_SET_NO = 999
REV_AT_EPOCH   = 37651
BSTAR          = .33613204E-3
MEAN_MOTION_DOT = .84E-4
MEAN_MOTION_DDOT = 0

CCSDS_OMM_VERS = 2.0
CREATION_DATE  = 
ORIGINATOR     = 

OBJECT_NAME    = SL-14 R/B
OBJECT_ID      = 1982-092B
CENTER_NAME    = EARTH
REF_FRAME      = TEME
TIME_SYSTEM    = UTC
MEAN_ELEMENT_THEORY = SGP/SGP4

EPOCH          = 2026-03-01T18:43:33.221568
MEAN_MOTION    = 14.86656828
ECCENTRICITY   = .00195207
INCLINATION    = 82.5705
RA_OF_ASC_NODE = 148.7961
ARG_OF_PERICENTER = 331.3039
MEAN_ANOMALY   = 151.7318

EPHEMERIS_TYPE = 0
CLASSIFICATION_TYPE = U
NORAD_CAT_ID   = 13553
ELEMENT_SET_NO = 999
REV_AT_EPOCH   = 32775
BSTAR          = .59696406E-4
MEAN_MOTION_DOT = .556E-5
MEAN_MOTION_DDOT = 0

CCSDS_OMM_VERS = 2.0
CREATION_DATE  = 
ORIGINATOR     = 

OBJECT_NAME    = SL-3 R/B
OBJECT_ID      = 1983-010B
CENTER_NAME    = EARTH
REF_FRAME      = TEME
TIME_SYSTEM    = UTC
MEAN_ELEMENT_THEORY = SGP/SGP4

EPOCH          = 2026-03-01T22:19:45.506784
MEAN_MOTION    = 15.46021412
ECCENTRICITY   = .00185386
INCLINATION    = 81.1052
RA_OF_ASC_NODE = 11.7558
ARG_OF_PERICENTER = 75.5248
MEAN_ANOMALY   = 284.8052

EPHEMERIS_TYPE = 0
CLASSIFICATION_TYPE = U
NORAD_CAT_ID   = 13819
ELEMENT_SET_NO = 999
REV_AT_EPOCH   = 35674
BSTAR          = .39962821E-3
MEAN_MOTION_DOT = .19685E-3
MEAN_MOTION_DDOT = 0

CCSDS_OMM_VERS = 2.0
CREATION_DATE  = 
ORIGINATOR     = 

OBJECT_NAME    = SL-3 R/B
OBJECT_ID      = 1983-075B
CENTER_NAME    = EARTH
REF_FRAME      = TEME
TIME_SYSTEM    = UTC
MEAN_ELEMENT_THEORY = SGP/SGP4

EPOCH          = 2026-03-01T22:42:40.669056
MEAN_MOTION    = 15.38191432
ECCENTRICITY   = .0019658
INCLINATION    = 97.6132
RA_OF_ASC_NODE = 65.2316
ARG_OF_PERICENTER = 256.2469
MEAN_ANOMALY   = 103.6587

EPHEMERIS_TYPE = 0
CLASSIFICATION_TYPE = U
NORAD_CAT_ID   = 14208
ELEMENT_SET_NO = 999
REV_AT_EPOCH   = 32896
BSTAR          = .34605709E-3
MEAN_MOTION_DOT = .13019E-3
MEAN_MOTION_DDOT = 0

CCSDS_OMM_VERS = 2.0
CREATION_DATE  = 
ORIGINATOR     = 

OBJECT_NAME    = COSMOS 1536
OBJECT_ID      = 1984-013A
CENTER_NAME    = EARTH
REF_FRAME      = TEME
TIME_SYSTEM    = UTC
MEAN_ELEMENT_THEORY = SGP/SGP4

EPOCH          = 2026-03-01T15:25:23.376288
MEAN_MOTION    = 15.23700139
ECCENTRICITY   = .00129179
INCLINATION    = 82.5443
RA_OF_ASC_NODE = 115.8496
ARG_OF_PERICENTER = 315.2474
MEAN_ANOMALY   = 44.7720

EPHEMERIS_TYPE = 0
CLASSIFICATION_TYPE = U
NORAD_CAT_ID   = 14699
ELEMENT_SET_NO = 999
REV_AT_EPOCH   = 27139
BSTAR          = .30648277E-3
MEAN_MOTION_DOT = .7404E-4
MEAN_MOTION_DDOT = 0

CCSDS_OMM_VERS = 2.0
CREATION_DATE  = 
ORIGINATOR     = 

OBJECT_NAME    = SL-14 R/B
OBJECT_ID      = 1984-027B
CENTER_NAME    = EARTH
REF_FRAME      = TEME
TIME_SYSTEM    = UTC
MEAN_ELEMENT_THEORY = SGP/SGP4

EPOCH          = 2026-03-01T22:47:01.606560
MEAN_MOTION    = 14.85966733
ECCENTRICITY   = .00180322
INCLINATION    = 82.5380
RA_OF_ASC_NODE = 252.2743
ARG_OF_PERICENTER = 4.1238
MEAN_ANOMALY   = 356.0124

EPHEMERIS_TYPE = 0
CLASSIFICATION_TYPE = U
NORAD_CAT_ID   = 14820
ELEMENT_SET_NO = 999
REV_AT_EPOCH   = 24648
BSTAR          = .60344991E-4
MEAN_MOTION_DOT = .552E-5
MEAN_MOTION_DDOT = 0

CCSDS_OMM_VERS = 2.0
CREATION_DATE  = 
ORIGINATOR     = 

OBJECT_NAME    = SL-8 R/B
OBJECT_ID      = 1985-006B
CENTER_NAME    = EARTH
REF_FRAME      = TEME
TIME_SYSTEM    = UTC
MEAN_ELEMENT_THEORY = SGP/SGP4

EPOCH          = 2026-03-01T22:37:45.230304
MEAN_MOTION    = 14.37777445
ECCENTRICITY   = .00187682
INCLINATION    = 74.0435
RA_OF_ASC_NODE = 275.4045
ARG_OF_PERICENTER = 194.9254
MEAN_ANOMALY   = 268.9599

EPHEMERIS_TYPE = 0
CLASSIFICATION_TYPE = U
NORAD_CAT_ID   = 15483
ELEMENT_SET_NO = 999
REV_AT_EPOCH   = 15291
BSTAR          = .69539712E-4
MEAN_MOTION_DOT = .183E-5
MEAN_MOTION_DDOT = 0

CCSDS_OMM_VERS = 2.0
CREATION_DATE  = 
ORIGINATOR     = 

OBJECT_NAME    = SL-12 R/B(2)
OBJECT_ID      = 1985-042D
CENTER_NAME    = EARTH
REF_FRAME      = TEME
TIME_SYSTEM    = UTC
MEAN_ELEMENT_THEORY = SGP/SGP4

EPOCH          = 2026-03-01T21:46:53.533056
MEAN_MOTION    = 14.21979925
ECCENTRICITY   = .00336102
INCLINATION    = 71.1065
RA_OF_ASC_NODE = 104.1715
ARG_OF_PERICENTER = 140.8680
MEAN_ANOMALY   = 31.6655

EPHEMERIS_TYPE = 0
CLASSIFICATION_TYPE = U
NORAD_CAT_ID   = 15772
ELEMENT_SET_NO = 999
REV_AT_EPOCH   = 11328
BSTAR          = .86281492E-4
MEAN_MOTION_DOT = .144E-5
MEAN_MOTION_DDOT = 0

CCSDS_OMM_VERS = 2.0
CREATION_DATE  = 
ORIGINATOR     = 

OBJECT_NAME    = SL-14 R/B
OBJECT_ID      = 1985-069B
CENTER_NAME    = EARTH
REF_FRAME      = TEME
TIME_SYSTEM    = UTC
MEAN_ELEMENT_THEORY = SGP/SGP4

EPOCH          = 2026-03-01T22:28:29.227296
MEAN_MOTION    = 14.86422099
ECCENTRICITY   = .00178028
INCLINATION    = 82.5268
RA_OF_ASC_NODE = 32.2232
ARG_OF_PERICENTER = 214.1549
MEAN_ANOMALY   = 145.8524

EPHEMERIS_TYPE = 0
CLASSIFICATION_TYPE = U
NORAD_CAT_ID   = 15945
ELEMENT_SET_NO = 999
REV_AT_EPOCH   = 17168
BSTAR          = .68155961E-4
MEAN_MOTION_DOT = .627E-5
MEAN_MOTION_DDOT = 0

CCSDS_OMM_VERS = 2.0
CREATION_DATE  = 
ORIGINATOR     = 

OBJECT_NAME    = SL-16 R/B
OBJECT_ID      = 1985-097B
CENTER_NAME    = EARTH
REF_FRAME      = TEME
TIME_SYSTEM    = UTC
MEAN_ELEMENT_THEORY = SGP/SGP4

EPOCH          = 2026-03-01T17:38:11.205888
MEAN_MOTION    = 14.16599258
ECCENTRICITY   = .00098616
INCLINATION    = 71.0037
RA_OF_ASC_NODE = 157.3002
ARG_OF_PERICENTER = 268.9259
MEAN_ANOMALY   = 202.8079

EPHEMERIS_TYPE = 0
CLASSIFICATION_TYPE = U
NORAD_CAT_ID   = 16182
ELEMENT_SET_NO = 999
REV_AT_EPOCH   = 8610
BSTAR          = .57341576E-4
MEAN_MOTION_DOT = .67E-6
MEAN_MOTION_DDOT = 0

CCSDS_OMM_VERS = 2.0
CREATION_DATE  = 
ORIGINATOR     = 

OBJECT_NAME    = SL-14 R/B
OBJECT_ID      = 1986-006B
CENTER_NAME    = EARTH
REF_FRAME      = TEME
TIME_SYSTEM    = UTC
MEAN_ELEMENT_THEORY = SGP/SGP4

EPOCH          = 2026-03-01T21:58:22.027008
MEAN_MOTION    = 14.86802784
ECCENTRICITY   = .0075241
INCLINATION    = 82.5236
RA_OF_ASC_NODE = 267.0559
ARG_OF_PERICENTER = 299.0886
MEAN_ANOMALY   = 60.2810

EPHEMERIS_TYPE = 0
CLASSIFICATION_TYPE = U
NORAD_CAT_ID   = 16496
ELEMENT_SET_NO = 999
REV_AT_EPOCH   = 14805
BSTAR          = .70786528E-4
MEAN_MOTION_DOT = .689E-5
MEAN_MOTION_DDOT = 0

CCSDS_OMM_VERS = 2.0
CREATION_DATE  = 
ORIGINATOR     = 

OBJECT_NAME    = COSMOS 1743
OBJECT_ID      = 1986-034A
CENTER_NAME    = EARTH
REF_FRAME      = TEME
TIME_SYSTEM    = UTC
MEAN_ELEMENT_THEORY = SGP/SGP4

EPOCH          = 2026-03-01T13:12:47.697984
MEAN_MOTION    = 15.57886448
ECCENTRICITY   = .00025425
INCLINATION    = 82.5300
RA_OF_ASC_NODE = 82.3698
ARG_OF_PERICENTER = 346.0637
MEAN_ANOMALY   = 14.0548

EPHEMERIS_TYPE = 0
CLASSIFICATION_TYPE = U
NORAD_CAT_ID   = 16719
ELEMENT_SET_NO = 999
REV_AT_EPOCH   = 17898
BSTAR          = .5122011E-3
MEAN_MOTION_DOT = .38346E-3
MEAN_MOTION_DDOT = 0

