SL-3 R/B                
1 13403U 82079B   26060.92300262  .00008400  00000+0  33613-3 0  9995
2 13403  81.1467 202.2456 0024772 190.9439 169.1259 15.24657409376516
SL-14 R/B               
1 13553U 82092B   26060.78024562  .00000556  00000+0  59696-4 0  9990
2 13553  82.5705 148.7961 0019520 331.3039 151.7318 14.86656828327755
SL-3 R/B                
1 13819U 83010B   26060.93038781  .00019685  00000+0  39963-3 0  9998
2 13819  81.1052  11.7558 0018538  75.5248 284.8052 15.46021412356744
SL-3 R/B                
1 14208U 83075B   26060.94630404  .00013019  00000+0  34606-3 0  9997
2 14208  97.6132  65.2316 0019658 256.2469 103.6587 15.38191432328966
COSMOS 1536             
1 14699U 84013A   26060.64263167  .00007404  00000+0  30648-3 0  9992
2 14699  82.5443 115.8496 0012917 315.2474  44.7720 15.23700139271394
SL-14 R/B               
1 14820U 84027B   26060.94932415  .00000552  00000+0  60345-4 0  9990
2 14820  82.5380 252.2743 0018032   4.1238 356.0124 14.85966733246487
SL-8 R/B                
1 15483U 85006B   26060.94288461  .00000183  00000+0  69540-4 0  9995
2 15483  74.0435 275.4045 0018768 194.9254 268.9599 14.37777445152912
SL-12 R/B(2)            
1 15772U 85042D   26060.90756404  .00000144  00000+0  86281-4 0  9997
2 15772  71.1065 104.1715 0033610 140.8680  31.6655 14.21979925113283
SL-14 R/B               
1 15945U 85069B   26060.93644939  .00000627  00000+0  68156-4 0  9997
2 15945  82.5268  32.2232 0017802 214.1549 145.8524 14.86422099171682
SL-16 R/B               
1 16182U 85097B   26060.73485192  .00000067  00000+0  57342-4 0  9997
2 16182  71.0037 157.3002 0009861 268.9259 202.8079 14.16599258 86104
SL-14 R/B               
1 16496U 86006B   26060.91553272  .00000689  00000+0  70787-4 0  9999
2 16496  82.5236 267.0559 0075241 299.0886  60.2810 14.86802784148052
COSMOS 1743             
1 16719U 86034A   26060.55055206  .00038346  00000+0  51220-3 0  9993
2 16719  82.5300  82.3698 0002542 346.0637  14.0548 15.57886448178983
